
# Worst residual: 177.49 km
# MJD 60671.000000 (2024 Dec 27  0:00)
A11dENN = A11dHal = A11dusy
1 79903U 24999ZYU 24362.49919926  .00000000  00000-0  00000-0 0 25377
2 79903 020.1296 300.2526 7376118 329.1766 303.9131 01.03219605    02

# Worst residual: 156.92 km
# MJD 60672.000000 (2024 Dec 28  0:00)
A11dENN = A11dHal = A11dusy
1 79903U 24999ZYU 24363.49919926  .00000000  00000-0  00000-0 0 25378
2 79903 019.9590 300.4432 7374887 329.6701 314.3274 01.03275226    03

# Worst residual: 154.65 km
# MJD 60673.000000 (2024 Dec 29  0:00)
A11dENN = A11dHal = A11dusy
1 79903U 24999ZYU 24364.49919926  .00000000  00000-0  00000-0 0 25379
2 79903 019.8279 300.6039 7371332 330.1932 324.7381 01.03321219    04

# Worst residual: 168.69 km
# MJD 60674.000000 (2024 Dec 30  0:00)
A11dENN = A11dHal = A11dusy
1 79903U 24999ZYU 24365.49919926  .00000000  00000-0  00000-0 0 25370
2 79903 019.6507 300.8152 7367028 330.6531 335.1811 01.03375846    00

# Worst residual: 165.92 km
# MJD 60675.000000 (2024 Dec 31  0:00)
A11dENN = A11dHal = A11dusy
1 79903U 24999ZYU 24366.49919926  .00000000  00000-0  00000-0 0 25371
2 79903 019.4870 301.0114 7362881 331.1231 345.6546 01.03417339    02

# Worst residual: 144.48 km
# MJD 60676.000000 (2025 Jan  1  0:00)
A11dENN = A11dHal = A11dusy
1 79903U 24999ZYU 25001.49919926  .00000000  00000-0  00000-0 0 25378
2 79903 019.3189 301.2255 7360009 331.5727 356.1284 01.03438458    07

# Worst residual: 142.54 km
# MJD 60677.000000 (2025 Jan  2  0:00)
A11dENN = A11dHal = A11dusy
1 79903U 24999ZYU 25002.49919926  .00000000  00000-0  00000-0 0 25379
2 79903 019.1518 301.3946 7353580 332.0848 006.5907 01.03479430    08

# Worst residual: 118.41 km
# MJD 60678.000000 (2025 Jan  3  0:00)
A11dENN = A11dHal = A11dusy
1 79903U 24999ZYU 25003.49919926  .00000000  00000-0  00000-0 0 25370
2 79903 018.9835 301.6106 7348564 332.5263 017.0800 01.03483093    09

# Worst residual: 106.77 km
# MJD 60679.000000 (2025 Jan  4  0:00)
A11dENN = A11dHal = A11dusy
1 79903U 24999ZYU 25004.49919926  .00000000  00000-0  00000-0 0 25371
2 79903 018.8020 301.8466 7342895 332.9521 027.5778 01.03484370    06

# Worst residual: 125.10 km
# MJD 60680.000000 (2025 Jan  5  0:00)
A11dENN = A11dHal = A11dusy
1 79903U 24999ZYU 25005.49919926  .00000000  00000-0  00000-0 0 25372
2 79903 018.6103 302.0498 7336545 333.4118 038.0629 01.03476762    05

# Worst residual: 131.91 km
# MJD 60681.000000 (2025 Jan  6  0:00)
A11dENN = A11dHal = A11dusy
1 79903U 24999ZYU 25006.49919926  .00000000  00000-0  00000-0 0 25373
2 79903 018.4446 302.2431 7329531 333.8804 048.5330 01.03445005    06

# Worst residual: 145.38 km
# MJD 60682.000000 (2025 Jan  7  0:00)
A11dENN = A11dHal = A11dusy
1 79903U 24999ZYU 25007.49919926  .00000000  00000-0  00000-0 0 25374
2 79903 018.2578 302.4584 7322278 334.3311 059.0409 01.03419578    01

# Worst residual: 149.15 km
# MJD 60683.000000 (2025 Jan  8  0:00)
A11dENN = A11dHal = A11dusy
1 79903U 24999ZYU 25008.49919926  .00000000  00000-0  00000-0 0 25375
2 79903 018.0777 302.6857 7316422 334.7728 069.5027 01.03382116    04

# Worst residual: 149.12 km
# MJD 60684.000000 (2025 Jan  9  0:00)
A11dENN = A11dHal = A11dusy
1 79903U 24999ZYU 25009.49919926  .00000000  00000-0  00000-0 0 25376
2 79903 017.8818 302.9295 7307995 335.2158 079.9538 01.03341887    06

# Worst residual: 166.22 km
# MJD 60685.000000 (2025 Jan 10  0:00)
A11dENN = A11dHal = A11dusy
1 79903U 24999ZYU 25010.49919926  .00000000  00000-0  00000-0 0 25378
2 79903 017.6798 303.1743 7298667 335.6483 090.4208 01.03316062    01

# Worst residual: 190.57 km
# MJD 60686.000000 (2025 Jan 11  0:00)
A11dENN = A11dHal = A11dusy
1 79903U 24999ZYU 25011.49919926  .00000000  00000-0  00000-0 0 25379
2 79903 017.4883 303.4040 7289682 336.1036 100.8422 01.03248657    02

# Worst residual: 182.69 km
# MJD 60687.000000 (2025 Jan 12  0:00)
A11dENN = A11dHal = A11dusy
1 79903U 24999ZYU 25012.49919926  .00000000  00000-0  00000-0 0 25370
2 79903 017.2771 303.6490 7281720 336.5354 111.2899 01.03216863    07

# Worst residual: 199.32 km
# MJD 60688.000000 (2025 Jan 13  0:00)
A11dENN = A11dHal = A11dusy
1 79903U 24999ZYU 25013.49919926  .00000000  00000-0  00000-0 0 25371
2 79903 017.0787 303.8912 7268749 336.9993 121.6817 01.03171634    03

# Worst residual: 196.70 km
# MJD 60689.000000 (2025 Jan 14  0:00)
A11dENN = A11dHal = A11dusy
1 79903U 24999ZYU 25014.49919926  .00000000  00000-0  00000-0 0 25372
2 79903 016.8679 304.1392 7254873 337.4457 132.0914 01.03130140    01

# Worst residual: 172.12 km
# MJD 60690.000000 (2025 Jan 15  0:00)
A11dENN = A11dHal = A11dusy
1 79903U 24999ZYU 25015.49919926  .00000000  00000-0  00000-0 0 25373
2 79903 016.6420 304.3811 7240241 337.8865 142.5402 01.03101999    00

# Worst residual: 167.27 km
# MJD 60691.000000 (2025 Jan 16  0:00)
A11dENN = A11dHal = A11dusy
1 79903U 24999ZYU 25016.49919926  .00000000  00000-0  00000-0 0 25374
2 79903 016.4420 304.6380 7226091 338.3097 152.9702 01.03053231    05

# Worst residual: 150.25 km
# MJD 60692.000000 (2025 Jan 17  0:00)
A11dENN = A11dHal = A11dusy
1 79903U 24999ZYU 25017.49919926  .00000000  00000-0  00000-0 0 25375
2 79903 016.2336 304.8561 7209458 338.7766 163.4014 01.03033123    08

# Worst residual: 123.69 km
# MJD 60693.000000 (2025 Jan 18  0:00)
A11dENN = A11dHal = A11dusy
1 79903U 24999ZYU 25018.49919926  .00000000  00000-0  00000-0 0 25376
2 79903 016.0105 305.0973 7191443 339.2106 173.8455 01.03002780    07

# Worst residual: 79.13 km
# MJD 60694.000000 (2025 Jan 19  0:00)
A11dENN = A11dHal = A11dusy
1 79903U 24999ZYU 25019.49919926  .00000000  00000-0  00000-0 0 25377
2 79903 015.8088 305.3268 7171713 339.6510 184.3058 01.02956620    01

# Worst residual: 54.35 km
# MJD 60695.000000 (2025 Jan 20  0:00)
A11dENN = A11dHal = A11dusy
1 79903U 24999ZYU 25020.49919926  .00000000  00000-0  00000-0 0 25379
2 79903 015.6161 305.5016 7153070 340.1401 194.7891 01.02927955    05

# Worst residual: 61.32 km
# MJD 60696.000000 (2025 Jan 21  0:00)
A11dENN = A11dHal = A11dusy
1 79903U 24999ZYU 25021.49919926  .00000000  00000-0  00000-0 0 25370
2 79903 015.4190 305.7211 7136373 340.5795 205.2726 01.02916763    01

# Worst residual: 55.78 km
# MJD 60697.000000 (2025 Jan 22  0:00)
A11dENN = A11dHal = A11dusy
1 79903U 24999ZYU 25022.49919926  .00000000  00000-0  00000-0 0 25371
2 79903 015.2138 305.9214 7120593 341.0409 215.7756 01.02920761    03

# Worst residual: 70.84 km
# MJD 60698.000000 (2025 Jan 23  0:00)
A11dENN = A11dHal = A11dusy
1 79903U 24999ZYU 25023.49919926  .00000000  00000-0  00000-0 0 25372
2 79903 015.0084 306.1327 7106024 341.4968 226.2557 01.02943108    02

# Worst residual: 104.27 km
# MJD 60699.000000 (2025 Jan 24  0:00)
A11dENN = A11dHal = A11dusy
1 79903U 24999ZYU 25024.49919926  .00000000  00000-0  00000-0 0 25373
2 79903 014.7978 306.3479 7091300 341.9594 236.7280 01.02965222    00
